{
    "links": {
        "self": "http://www.neowsapp.com/rest/v1/neo/3836112?api_key=iIulBulltgU6a56xZRHN4H3l9WmuAYTsLGpBGhQ2"
    },
    "id": "3836112",
    "neo_reference_id": "3836112",
    "name": "(2018 VY4)",
    "designation": "2018 VY4",
    "nasa_jpl_url": "http://ssd.jpl.nasa.gov/sbdb.cgi?sstr=3836112",
    "absolute_magnitude_h": 27.1,
    "estimated_diameter": {
        "kilometers": {
            "estimated_diameter_min": 0.0101054342,
            "estimated_diameter_max": 0.0225964377
        },
        "meters": {
            "estimated_diameter_min": 10.1054341542,
            "estimated_diameter_max": 22.5964377109
        },
        "miles": {
            "estimated_diameter_min": 0.0062792237,
            "estimated_diameter_max": 0.0140407711
        },
        "feet": {
            "estimated_diameter_min": 33.1543125905,
            "estimated_diameter_max": 74.1352966996
        }
    },
    "is_potentially_hazardous_asteroid": false,
    "close_approach_data": [
        {
            "close_approach_date": "2018-11-11",
            "close_approach_date_full": "2018-Nov-11 05:53",
            "epoch_date_close_approach": 1541915580000,
            "relative_velocity": {
                "kilometers_per_second": "12.5644973314",
                "kilometers_per_hour": "45232.1903929313",
                "miles_per_hour": "28105.5240805411"
            },
            "miss_distance": {
                "astronomical": "0.0139731252",
                "lunar": "5.4355457028",
                "kilometers": "2090349.767163324",
                "miles": "1298883.1153049112"
            },
            "orbiting_body": "Earth"
        }
    ],
    "orbital_data": {
        "orbit_id": "2",
        "orbit_determination_date": "2018-12-02 06:24:25",
        "first_observation_date": "2018-11-06",
        "last_observation_date": "2018-11-10",
        "data_arc_in_days": 4,
        "observations_used": 40,
        "orbit_uncertainty": "7",
        "minimum_orbit_intersection": ".00142318",
        "jupiter_tisserand_invariant": "3.244",
        "epoch_osculation": "2459000.5",
        "eccentricity": ".6195199510458338",
        "semi_major_axis": "2.371999366309816",
        "inclination": "7.675736461327745",
        "ascending_node_longitude": "51.73154692406288",
        "orbital_period": "1334.351597396366",
        "perihelion_distance": ".9024984350128102",
        "perihelion_argument": "38.81094380608716",
        "aphelion_distance": "3.841500297606823",
        "perihelion_time": "2458463.542867175186",
        "mean_anomaly": "144.867790613895",
        "mean_motion": ".2697939588804366",
        "equinox": "J2000",
        "orbit_class": {
            "orbit_class_type": "APO",
            "orbit_class_description": "Near-Earth asteroid orbits which cross the Earth’s orbit similar to that of 1862 Apollo",
            "orbit_class_range": "a (semi-major axis) > 1.0 AU; q (perihelion) < 1.017 AU"
        }
    },
    "is_sentry_object": false
}